0 FENGYUN 1C DEB
1 31861U 99025CKB 13280.95698063  .00000699  00000-0  95999-3 0  3547
2 31861 102.3215 334.5931 0543866 336.3050 021.4104 13.14765969310765
0 FENGYUN 1C DEB
1 31861U 99025CKB 13281.33742437  .00000794  00000-0  10750-2 0  3553
2 31861 102.3196 335.0315 0545608 335.4249 022.1978 13.14768627310818
0 FENGYUN 1C DEB
1 31861U 99025CKB 13283.39183942  .00000831  00000-0  11215-2 0  3561
2 31861 102.3191 337.4259 0545840 331.0686 026.1290 13.14773037311083
0 FENGYUN 1C DEB
1 31861U 99025CKB 13285.37016394  .00000919  00000-0  12337-2 0  3571
2 31861 102.3187 339.7322 0545204 326.8456 029.9952 13.14778484311341
0 FENGYUN 1C DEB
1 31861U 99025CKB 13287.34847340  .00001058  00000-0  14123-2 0  3584
2 31861 102.3154 342.0335 0544330 322.6025 033.8696 13.14785408311603
0 FENGYUN 1C DEB
1 31861U 99025CKB 13291.38118379  .00001284  00000-0  17051-2 0  3591
2 31861 102.3191 346.7436 0542933 314.1696 041.6842 13.14799524312137
0 FENGYUN 1C DEB
1 31861U 99025CKB 13293.35946588  .00001409  00000-0  18686-2 0  3607
2 31861 102.3191 349.0536 0541751 309.9584 045.5623 13.14807762312391
